IRIDIUM 7               
1 24793U 97020B   25151.80138442  .00000327  00000+0  10614-3 0  9993
2 24793  86.3989 183.7715 0002405  98.4287 261.7182 14.35928366469543
IRIDIUM 5               
1 24795U 97020D   25152.17048157  .00004290  00000+0  35350-3 0  9996
2 24795  86.3881  91.1175 0108166 194.5097 165.3022 14.94239692483108
IRIDIUM 4               
1 24796U 97020E   25151.79511698  .00000280  00000+0  88069-4 0  9990
2 24796  86.3984 180.6656 0002230  93.8533 266.2919 14.36831591470117
IRIDIUM 914             
1 24836U 97030A   25152.53842490  .00000849  00000+0  25878-3 0  9995
2 24836  86.3967 188.9966 0000743  91.0535 269.0750 14.40862847466973
IRIDIUM 16              
1 24841U 97030F   25152.54447302  .00000824  00000+0  26239-3 0  9990
2 24841  86.4064 211.8409 0004499 105.0000 255.1696 14.38707164465017
IRIDIUM 911             
1 24842U 97030G   25151.66536445  .00000486  00000+0  12626-3 0  9999
2 24842  86.4490 210.9973 0015560 145.3266 214.8955 14.47623451472697
IRIDIUM 17              
1 24870U 97034B   25152.52209078  .00000910  00000+0  29558-3 0  9993
2 24870  86.3971 241.3355 0003824  83.0849 277.0784 14.37819683461331
IRIDIUM 920             
1 24871U 97034C   25151.91096825  .00000394  00000+0  11506-3 0  9990
2 24871  86.4002 220.8617 0013423 128.9966 231.2431 14.41521355464230
